{
  "type": "FeatureCollection",
  "features": [
    {
      "type": "Feature",
      "id": "fwr_sirenen.96cd28ef-f1fa-46d2-a580-c4f115e96e8c",
      "geometry": {
        "type": "Polygon",
        "coordinates": [
          [
            [
              340800,
              5678000
            ],
            [
              340500,
              5677300
            ],
            [
              339800,
              5677000
            ],
            [
              339100,
              5677300
            ],
            [
              338800,
              5678000
            ],
            [
              339100,
              5678700
            ],
            [
              339800,
              5679000
            ],
            [
              340500,
              5678700
            ],
            [
              340800,
              5678000
            ]
          ]
        ]
      },
      "geometry_name": "_geometry",
      "properties": {
        "_uuid": "96cd28ef-f1fa-46d2-a580-c4f115e96e8c",
        "_dic_id": "fwrsir",
        "nummer": "S001",
        "beschallungsradius": "1000",
        "adresse": "Heerdter Landstraße 186",
        "plz": "40549",
        "stadtteil": "Heerdt",
        "stadt": "Düsseldorf",
        "_last_update": "2026-04-15"
      }
    },
    {
      "type": "Feature",
      "id": "fwr_sirenen.01dabe28-6a9f-4bfe-a5e1-7df92ee219b5",
      "geometry": {
        "type": "Polygon",
        "coordinates": [
          [
            [
              344100,
              5678300
            ],
            [
              343800,
              5677600
            ],
            [
              343100,
              5677300
            ],
            [
              342400,
              5677600
            ],
            [
              342100,
              5678300
            ],
            [
              342400,
              5679000
            ],
            [
              343100,
              5679300
            ],
            [
              343800,
              5679000
            ],
            [
              344100,
              5678300
            ]
          ]
        ]
      },
      "geometry_name": "_geometry",
      "properties": {
        "_uuid": "01dabe28-6a9f-4bfe-a5e1-7df92ee219b5",
        "_dic_id": "fwrsir",
        "nummer": "S003",
        "beschallungsradius": "1000",
        "adresse": "Comeniusstraße 1",
        "plz": "40545",
        "stadtteil": "Oberkassel",
        "stadt": "Düsseldorf",
        "_last_update": "2026-04-15"
      }
    },
    {
      "type": "Feature",
      "id": "fwr_sirenen.b6c2fb2b-3054-4e65-a0c2-2c641412b01b",
      "geometry": {
        "type": "Polygon",
        "coordinates": [
          [
            [
              342100,
              5678000
            ],
            [
              341900,
              5677400
            ],
            [
              341300,
              5677200
            ],
            [
              340800,
              5677400
            ],
            [
              340500,
              5678000
            ],
            [
              340800,
              5678600
            ],
            [
              341300,
              5678800
            ],
            [
              341900,
              5678600
            ],
            [
              342100,
              5678000
            ]
          ]
        ]
      },
      "geometry_name": "_geometry",
      "properties": {
        "_uuid": "b6c2fb2b-3054-4e65-a0c2-2c641412b01b",
        "_dic_id": "fwrsir",
        "nummer": "S004",
        "beschallungsradius": "800",
        "adresse": "Am Heerdter Krankenhaus 2",
        "plz": "40549",
        "stadtteil": "Heerdt",
        "stadt": "Düsseldorf",
        "_last_update": "2026-04-15"
      }
    },
    {
      "type": "Feature",
      "id": "fwr_sirenen.b13985a1-37dc-4b8b-a6d2-43a52a3ad824",
      "geometry": {
        "type": "Polygon",
        "coordinates": [
          [
            [
              353900,
              5667800
            ],
            [
              353600,
              5667100
            ],
            [
              352900,
              5666800
            ],
            [
              352200,
              5667100
            ],
            [
              351900,
              5667800
            ],
            [
              352200,
              5668500
            ],
            [
              352900,
              5668800
            ],
            [
              353600,
              5668500
            ],
            [
              353900,
              5667800
            ]
          ]
        ]
      },
      "geometry_name": "_geometry",
      "properties": {
        "_uuid": "b13985a1-37dc-4b8b-a6d2-43a52a3ad824",
        "_dic_id": "fwrsir",
        "nummer": "S007",
        "beschallungsradius": "1000",
        "adresse": "Emil-Barth-Straße 1 (1-7)",
        "plz": "40595",
        "stadtteil": "Garath",
        "stadt": "Düsseldorf",
        "_last_update": "2026-04-15"
      }
    },
    {
      "type": "Feature",
      "id": "fwr_sirenen.8fc6916b-96a0-4e18-bd73-db2728b37000",
      "geometry": {
        "type": "Polygon",
        "coordinates": [
          [
            [
              343200,
              5682900
            ],
            [
              342900,
              5682200
            ],
            [
              342200,
              5681900
            ],
            [
              341500,
              5682200
            ],
            [
              341200,
              5682900
            ],
            [
              341500,
              5683600
            ],
            [
              342200,
              5683900
            ],
            [
              342900,
              5683600
            ],
            [
              343200,
              5682900
            ]
          ]
        ]
      },
      "geometry_name": "_geometry",
      "properties": {
        "_uuid": "8fc6916b-96a0-4e18-bd73-db2728b37000",
        "_dic_id": "fwrsir",
        "nummer": "S010",
        "beschallungsradius": "1000",
        "adresse": "Im Grund 78",
        "plz": "40474",
        "stadtteil": "Lohausen",
        "stadt": "Düsseldorf",
        "_last_update": "2026-04-15"
      }
    },
    {
      "type": "Feature",
      "id": "fwr_sirenen.906a36e9-df60-47cc-a8c6-f801a4c5169a",
      "geometry": {
        "type": "Polygon",
        "coordinates": [
          [
            [
              345400,
              5682000
            ],
            [
              345100,
              5681300
            ],
            [
              344400,
              5681000
            ],
            [
              343700,
              5681300
            ],
            [
              343400,
              5682000
            ],
            [
              343700,
              5682700
            ],
            [
              344400,
              5683000
            ],
            [
              345100,
              5682700
            ],
            [
              345400,
              5682000
            ]
          ]
        ]
      },
      "geometry_name": "_geometry",
      "properties": {
        "_uuid": "906a36e9-df60-47cc-a8c6-f801a4c5169a",
        "_dic_id": "fwrsir",
        "nummer": "S013",
        "beschallungsradius": "1000",
        "adresse": "An der Golzheimer Heide 120",
        "plz": "40468",
        "stadtteil": "Unterrath",
        "stadt": "Düsseldorf",
        "_last_update": "2026-04-15"
      }
    },
    {
      "type": "Feature",
      "id": "fwr_sirenen.2403ab9d-c588-4dbd-9f1b-0959cec4e353",
      "geometry": {
        "type": "Polygon",
        "coordinates": [
          [
            [
              345600,
              5677300
            ],
            [
              345400,
              5676800
            ],
            [
              344800,
              5676500
            ],
            [
              344300,
              5676800
            ],
            [
              344000,
              5677300
            ],
            [
              344300,
              5677900
            ],
            [
              344800,
              5678100
            ],
            [
              345400,
              5677900
            ],
            [
              345600,
              5677300
            ]
          ]
        ]
      },
      "geometry_name": "_geometry",
      "properties": {
        "_uuid": "2403ab9d-c588-4dbd-9f1b-0959cec4e353",
        "_dic_id": "fwrsir",
        "nummer": "S019",
        "beschallungsradius": "800",
        "adresse": "Königsallee 1 - 9 (1)",
        "plz": "40213",
        "stadtteil": "Stadtmitte",
        "stadt": "Düsseldorf",
        "_last_update": "2026-04-15"
      }
    },
    {
      "type": "Feature",
      "id": "fwr_sirenen.2def8a75-4be2-4815-9324-92787dede1e9",
      "geometry": {
        "type": "Polygon",
        "coordinates": [
          [
            [
              346700,
              5676900
            ],
            [
              346400,
              5676300
            ],
            [
              345900,
              5676100
            ],
            [
              345300,
              5676300
            ],
            [
              345100,
              5676900
            ],
            [
              345300,
              5677400
            ],
            [
              345900,
              5677700
            ],
            [
              346400,
              5677400
            ],
            [
              346700,
              5676900
            ]
          ]
        ]
      },
      "geometry_name": "_geometry",
      "properties": {
        "_uuid": "2def8a75-4be2-4815-9324-92787dede1e9",
        "_dic_id": "fwrsir",
        "nummer": "S020",
        "beschallungsradius": "800",
        "adresse": "Konrad-Adenauer-Platz 1 (1-1a)",
        "plz": "40210",
        "stadtteil": "Stadtmitte",
        "stadt": "Düsseldorf",
        "_last_update": "2026-04-15"
      }
    },
    {
      "type": "Feature",
      "id": "fwr_sirenen.a583b449-0a56-4048-ac2a-9c88421acba2",
      "geometry": {
        "type": "Polygon",
        "coordinates": [
          [
            [
              348200,
              5677500
            ],
            [
              348000,
              5676900
            ],
            [
              347400,
              5676700
            ],
            [
              346800,
              5676900
            ],
            [
              346600,
              5677500
            ],
            [
              346800,
              5678000
            ],
            [
              347400,
              5678300
            ],
            [
              348000,
              5678000
            ],
            [
              348200,
              5677500
            ]
          ]
        ]
      },
      "geometry_name": "_geometry",
      "properties": {
        "_uuid": "a583b449-0a56-4048-ac2a-9c88421acba2",
        "_dic_id": "fwrsir",
        "nummer": "S021",
        "beschallungsradius": "800",
        "adresse": "Hoffeldstraße 69",
        "plz": "40235",
        "stadtteil": "Flingern Nord",
        "stadt": "Düsseldorf",
        "_last_update": "2026-04-15"
      }
    },
    {
      "type": "Feature",
      "id": "fwr_sirenen.bb04b738-de11-4b67-bd60-d89b95598617",
      "geometry": {
        "type": "Polygon",
        "coordinates": [
          [
            [
              342900,
              5675900
            ],
            [
              342600,
              5675200
            ],
            [
              341900,
              5674900
            ],
            [
              341200,
              5675200
            ],
            [
              340900,
              5675900
            ],
            [
              341200,
              5676600
            ],
            [
              341900,
              5676900
            ],
            [
              342600,
              5676600
            ],
            [
              342900,
              5675900
            ]
          ]
        ]
      },
      "geometry_name": "_geometry",
      "properties": {
        "_uuid": "bb04b738-de11-4b67-bd60-d89b95598617",
        "_dic_id": "fwrsir",
        "nummer": "S022",
        "beschallungsradius": "1000",
        "adresse": "Hamburger Straße 5",
        "plz": "40221",
        "stadtteil": "Hafen",
        "stadt": "Düsseldorf",
        "_last_update": "2026-04-15"
      }
    },
    {
      "type": "Feature",
      "id": "fwr_sirenen.f1d81816-dec5-4a94-bf09-d2e4e5389d1b",
      "geometry": {
        "type": "Polygon",
        "coordinates": [
          [
            [
              343800,
              5676300
            ],
            [
              343600,
              5675700
            ],
            [
              343000,
              5675500
            ],
            [
              342400,
              5675700
            ],
            [
              342200,
              5676300
            ],
            [
              342400,
              5676800
            ],
            [
              343000,
              5677100
            ],
            [
              343600,
              5676800
            ],
            [
              343800,
              5676300
            ]
          ]
        ]
      },
      "geometry_name": "_geometry",
      "properties": {
        "_uuid": "f1d81816-dec5-4a94-bf09-d2e4e5389d1b",
        "_dic_id": "fwrsir",
        "nummer": "S023",
        "beschallungsradius": "800",
        "adresse": "Speditionstraße 17",
        "plz": "40221",
        "stadtteil": "Hafen",
        "stadt": "Düsseldorf",
        "_last_update": "2026-04-15"
      }
    },
    {
      "type": "Feature",
      "id": "fwr_sirenen.72e23709-76ce-480d-afba-4bbbe89a73ef",
      "geometry": {
        "type": "Polygon",
        "coordinates": [
          [
            [
              345200,
              5676200
            ],
            [
              345000,
              5675600
            ],
            [
              344400,
              5675400
            ],
            [
              343800,
              5675600
            ],
            [
              343600,
              5676200
            ],
            [
              343800,
              5676800
            ],
            [
              344400,
              5677000
            ],
            [
              345000,
              5676800
            ],
            [
              345200,
              5676200
            ]
          ]
        ]
      },
      "geometry_name": "_geometry",
      "properties": {
        "_uuid": "72e23709-76ce-480d-afba-4bbbe89a73ef",
        "_dic_id": "fwrsir",
        "nummer": "S024",
        "beschallungsradius": "800",
        "adresse": "Kronprinzenstraße 2",
        "plz": "40217",
        "stadtteil": "Unterbilk",
        "stadt": "Düsseldorf",
        "_last_update": "2026-04-15"
      }
    },
    {
      "type": "Feature",
      "id": "fwr_sirenen.ad0a3c7a-82a7-41d2-825e-e83c15298ac9",
      "geometry": {
        "type": "Polygon",
        "coordinates": [
          [
            [
              344300,
              5675200
            ],
            [
              344100,
              5674600
            ],
            [
              343500,
              5674400
            ],
            [
              342900,
              5674600
            ],
            [
              342700,
              5675200
            ],
            [
              342900,
              5675800
            ],
            [
              343500,
              5676000
            ],
            [
              344100,
              5675800
            ],
            [
              344300,
              5675200
            ]
          ]
        ]
      },
      "geometry_name": "_geometry",
      "properties": {
        "_uuid": "ad0a3c7a-82a7-41d2-825e-e83c15298ac9",
        "_dic_id": "fwrsir",
        "nummer": "S025",
        "beschallungsradius": "800",
        "adresse": "Georg-Schulhoff-Platz 1",
        "plz": "40221",
        "stadtteil": "Bilk",
        "stadt": "Düsseldorf",
        "_last_update": "2026-04-15"
      }
    },
    {
      "type": "Feature",
      "id": "fwr_sirenen.cbcbcea6-ecc4-4aa3-9162-2e4a11bee365",
      "geometry": {
        "type": "Polygon",
        "coordinates": [
          [
            [
              345100,
              5673700
            ],
            [
              344900,
              5673000
            ],
            [
              344100,
              5672700
            ],
            [
              343400,
              5673000
            ],
            [
              343100,
              5673700
            ],
            [
              343400,
              5674400
            ],
            [
              344100,
              5674700
            ],
            [
              344900,
              5674400
            ],
            [
              345100,
              5673700
            ]
          ]
        ]
      },
      "geometry_name": "_geometry",
      "properties": {
        "_uuid": "cbcbcea6-ecc4-4aa3-9162-2e4a11bee365",
        "_dic_id": "fwrsir",
        "nummer": "S026",
        "beschallungsradius": "1000",
        "adresse": "Fleher Straße 213",
        "plz": "40223",
        "stadtteil": "Flehe",
        "stadt": "Düsseldorf",
        "_last_update": "2026-04-15"
      }
    },
    {
      "type": "Feature",
      "id": "fwr_sirenen.ecbd9259-a2d3-4cf6-a4e8-8983b410ba35",
      "geometry": {
        "type": "Polygon",
        "coordinates": [
          [
            [
              343100,
              5673300
            ],
            [
              342900,
              5672600
            ],
            [
              342100,
              5672300
            ],
            [
              341400,
              5672600
            ],
            [
              341100,
              5673300
            ],
            [
              341400,
              5674000
            ],
            [
              342100,
              5674300
            ],
            [
              342900,
              5674000
            ],
            [
              343100,
              5673300
            ]
          ]
        ]
      },
      "geometry_name": "_geometry",
      "properties": {
        "_uuid": "ecbd9259-a2d3-4cf6-a4e8-8983b410ba35",
        "_dic_id": "fwrsir",
        "nummer": "S027",
        "beschallungsradius": "1000",
        "adresse": "Auf dem Draap 25",
        "plz": "40221",
        "stadtteil": "Hamm",
        "stadt": "Düsseldorf",
        "_last_update": "2026-04-15"
      }
    },
    {
      "type": "Feature",
      "id": "fwr_sirenen.a1d764c5-57fb-4cf6-921e-bbb732d940b9",
      "geometry": {
        "type": "Polygon",
        "coordinates": [
          [
            [
              346100,
              5674800
            ],
            [
              345900,
              5674200
            ],
            [
              345300,
              5674000
            ],
            [
              344700,
              5674200
            ],
            [
              344500,
              5674800
            ],
            [
              344700,
              5675400
            ],
            [
              345300,
              5675600
            ],
            [
              345900,
              5675400
            ],
            [
              346100,
              5674800
            ]
          ]
        ]
      },
      "geometry_name": "_geometry",
      "properties": {
        "_uuid": "a1d764c5-57fb-4cf6-921e-bbb732d940b9",
        "_dic_id": "fwrsir",
        "nummer": "S028",
        "beschallungsradius": "800",
        "adresse": "Auf´m Hennekamp 45",
        "plz": "40225",
        "stadtteil": "Bilk",
        "stadt": "Düsseldorf",
        "_last_update": "2026-04-15"
      }
    },
    {
      "type": "Feature",
      "id": "fwr_sirenen.22acabd3-7e2b-4cab-af34-29c89850e0a2",
      "geometry": {
        "type": "Polygon",
        "coordinates": [
          [
            [
              346800,
              5673000
            ],
            [
              346500,
              5672300
            ],
            [
              345800,
              5672000
            ],
            [
              345100,
              5672300
            ],
            [
              344800,
              5673000
            ],
            [
              345100,
              5673700
            ],
            [
              345800,
              5674000
            ],
            [
              346500,
              5673700
            ],
            [
              346800,
              5673000
            ]
          ]
        ]
      },
      "geometry_name": "_geometry",
      "properties": {
        "_uuid": "22acabd3-7e2b-4cab-af34-29c89850e0a2",
        "_dic_id": "fwrsir",
        "nummer": "S029",
        "beschallungsradius": "1000",
        "adresse": "Universitätsstraße 48",
        "plz": "40225",
        "stadtteil": "Bilk",
        "stadt": "Düsseldorf",
        "_last_update": "2026-04-15"
      }
    },
    {
      "type": "Feature",
      "id": "fwr_sirenen.d2879ed9-60fd-448b-9d1c-dd13e69482c2",
      "geometry": {
        "type": "Polygon",
        "coordinates": [
          [
            [
              348500,
              5671100
            ],
            [
              348200,
              5670600
            ],
            [
              347700,
              5670300
            ],
            [
              347100,
              5670600
            ],
            [
              346900,
              5671100
            ],
            [
              347100,
              5671700
            ],
            [
              347700,
              5671900
            ],
            [
              348200,
              5671700
            ],
            [
              348500,
              5671100
            ]
          ]
        ]
      },
      "geometry_name": "_geometry",
      "properties": {
        "_uuid": "d2879ed9-60fd-448b-9d1c-dd13e69482c2",
        "_dic_id": "fwrsir",
        "nummer": "S030",
        "beschallungsradius": "800",
        "adresse": "Itterstraße 116",
        "plz": "40589",
        "stadtteil": "Holthausen",
        "stadt": "Düsseldorf",
        "_last_update": "2026-04-15"
      }
    },
    {
      "type": "Feature",
      "id": "fwr_sirenen.0fdc822a-43f1-4c57-b467-a2d64797751d",
      "geometry": {
        "type": "Polygon",
        "coordinates": [
          [
            [
              347800,
              5672000
            ],
            [
              347500,
              5671300
            ],
            [
              346800,
              5671000
            ],
            [
              346100,
              5671300
            ],
            [
              345800,
              5672000
            ],
            [
              346100,
              5672700
            ],
            [
              346800,
              5673000
            ],
            [
              347500,
              5672700
            ],
            [
              347800,
              5672000
            ]
          ]
        ]
      },
      "geometry_name": "_geometry",
      "properties": {
        "_uuid": "0fdc822a-43f1-4c57-b467-a2d64797751d",
        "_dic_id": "fwrsir",
        "nummer": "S031",
        "beschallungsradius": "1000",
        "adresse": "Otto-Hahn-Straße 42",
        "plz": "40591",
        "stadtteil": "Wersten",
        "stadt": "Düsseldorf",
        "_last_update": "2026-04-15"
      }
    },
    {
      "type": "Feature",
      "id": "fwr_sirenen.573dee72-2073-4592-8130-594a95e992fb",
      "geometry": {
        "type": "Polygon",
        "coordinates": [
          [
            [
              348400,
              5673100
            ],
            [
              348100,
              5672500
            ],
            [
              347500,
              5672200
            ],
            [
              346800,
              5672500
            ],
            [
              346600,
              5673100
            ],
            [
              346800,
              5673700
            ],
            [
              347500,
              5674000
            ],
            [
              348100,
              5673700
            ],
            [
              348400,
              5673100
            ]
          ]
        ]
      },
      "geometry_name": "_geometry",
      "properties": {
        "_uuid": "573dee72-2073-4592-8130-594a95e992fb",
        "_dic_id": "fwrsir",
        "nummer": "S032",
        "beschallungsradius": "900",
        "adresse": "Kölner Landstraße 169",
        "plz": "40591",
        "stadtteil": "Wersten",
        "stadt": "Düsseldorf",
        "_last_update": "2026-04-15"
      }
    },
    {
      "type": "Feature",
      "id": "fwr_sirenen.d1e9f387-c06f-4f02-b902-577e513f8f90",
      "geometry": {
        "type": "Polygon",
        "coordinates": [
          [
            [
              348000,
              5674300
            ],
            [
              347700,
              5673600
            ],
            [
              347000,
              5673300
            ],
            [
              346300,
              5673600
            ],
            [
              346000,
              5674300
            ],
            [
              346300,
              5675000
            ],
            [
              347000,
              5675300
            ],
            [
              347700,
              5675000
            ],
            [
              348000,
              5674300
            ]
          ]
        ]
      },
      "geometry_name": "_geometry",
      "properties": {
        "_uuid": "d1e9f387-c06f-4f02-b902-577e513f8f90",
        "_dic_id": "fwrsir",
        "nummer": "S033",
        "beschallungsradius": "1000",
        "adresse": "Siegburger Straße 139 (137)",
        "plz": "40591",
        "stadtteil": "Oberbilk",
        "stadt": "Düsseldorf",
        "_last_update": "2026-04-15"
      }
    },
    {
      "type": "Feature",
      "id": "fwr_sirenen.1e203efb-5bbf-4243-92af-4ad4c742f0e8",
      "geometry": {
        "type": "Polygon",
        "coordinates": [
          [
            [
              347900,
              5676800
            ],
            [
              347600,
              5676300
            ],
            [
              347100,
              5676000
            ],
            [
              346500,
              5676300
            ],
            [
              346300,
              5676800
            ],
            [
              346500,
              5677400
            ],
            [
              347100,
              5677600
            ],
            [
              347600,
              5677400
            ],
            [
              347900,
              5676800
            ]
          ]
        ]
      },
      "geometry_name": "_geometry",
      "properties": {
        "_uuid": "1e203efb-5bbf-4243-92af-4ad4c742f0e8",
        "_dic_id": "fwrsir",
        "nummer": "S034",
        "beschallungsradius": "800",
        "adresse": "Höherweg 43 (41-43)",
        "plz": "40233",
        "stadtteil": "Flingern Süd",
        "stadt": "Düsseldorf",
        "_last_update": "2026-04-15"
      }
    },
    {
      "type": "Feature",
      "id": "fwr_sirenen.50fbbb09-7ea2-4df4-92b5-dbf5d0ab1647",
      "geometry": {
        "type": "Polygon",
        "coordinates": [
          [
            [
              347700,
              5675500
            ],
            [
              347500,
              5674900
            ],
            [
              346900,
              5674700
            ],
            [
              346300,
              5674900
            ],
            [
              346100,
              5675500
            ],
            [
              346300,
              5676100
            ],
            [
              346900,
              5676300
            ],
            [
              347500,
              5676100
            ],
            [
              347700,
              5675500
            ]
          ]
        ]
      },
      "geometry_name": "_geometry",
      "properties": {
        "_uuid": "50fbbb09-7ea2-4df4-92b5-dbf5d0ab1647",
        "_dic_id": "fwrsir",
        "nummer": "S035",
        "beschallungsradius": "800",
        "adresse": "Stoffeler Straße 11",
        "plz": "40227",
        "stadtteil": "Oberbilk",
        "stadt": "Düsseldorf",
        "_last_update": "2026-04-15"
      }
    },
    {
      "type": "Feature",
      "id": "fwr_sirenen.024c3084-0aa1-431e-9554-e11897b5e8e7",
      "geometry": {
        "type": "Polygon",
        "coordinates": [
          [
            [
              352700,
              5671400
            ],
            [
              352500,
              5670700
            ],
            [
              351700,
              5670400
            ],
            [
              351000,
              5670700
            ],
            [
              350700,
              5671400
            ],
            [
              351000,
              5672100
            ],
            [
              351700,
              5672400
            ],
            [
              352500,
              5672100
            ],
            [
              352700,
              5671400
            ]
          ]
        ]
      },
      "geometry_name": "_geometry",
      "properties": {
        "_uuid": "024c3084-0aa1-431e-9554-e11897b5e8e7",
        "_dic_id": "fwrsir",
        "nummer": "S038",
        "beschallungsradius": "1000",
        "adresse": "Lärchenweg 12",
        "plz": "40599",
        "stadtteil": "Hassels",
        "stadt": "Düsseldorf",
        "_last_update": "2026-04-15"
      }
    },
    {
      "type": "Feature",
      "id": "fwr_sirenen.f94335f1-659c-4467-916d-a7cbbc7a67fb",
      "geometry": {
        "type": "Polygon",
        "coordinates": [
          [
            [
              353400,
              5669900
            ],
            [
              353100,
              5669200
            ],
            [
              352400,
              5668900
            ],
            [
              351700,
              5669200
            ],
            [
              351400,
              5669900
            ],
            [
              351700,
              5670600
            ],
            [
              352400,
              5670900
            ],
            [
              353100,
              5670600
            ],
            [
              353400,
              5669900
            ]
          ]
        ]
      },
      "geometry_name": "_geometry",
      "properties": {
        "_uuid": "f94335f1-659c-4467-916d-a7cbbc7a67fb",
        "_dic_id": "fwrsir",
        "nummer": "S039",
        "beschallungsradius": "1000",
        "adresse": "Schimmelpfennigstraße 1",
        "plz": "40597",
        "stadtteil": "Benrath",
        "stadt": "Düsseldorf",
        "_last_update": "2026-04-15"
      }
    },
    {
      "type": "Feature",
      "id": "fwr_sirenen.621db6f4-a919-4918-b05a-254d5265eccc",
      "geometry": {
        "type": "Polygon",
        "coordinates": [
          [
            [
              343200,
              5688600
            ],
            [
              343000,
              5688000
            ],
            [
              342400,
              5687800
            ],
            [
              341900,
              5688000
            ],
            [
              341600,
              5688600
            ],
            [
              341900,
              5689200
            ],
            [
              342400,
              5689400
            ],
            [
              343000,
              5689200
            ],
            [
              343200,
              5688600
            ]
          ]
        ]
      },
      "geometry_name": "_geometry",
      "properties": {
        "_uuid": "621db6f4-a919-4918-b05a-254d5265eccc",
        "_dic_id": "fwrsir",
        "nummer": "S040",
        "beschallungsradius": "800",
        "adresse": "Grenzweg 12",
        "plz": "40489",
        "stadtteil": "Wittlaer",
        "stadt": "Düsseldorf",
        "_last_update": "2026-04-15"
      }
    },
    {
      "type": "Feature",
      "id": "fwr_sirenen.cbff2c2e-32e3-41ca-8223-1a013caa137c",
      "geometry": {
        "type": "Polygon",
        "coordinates": [
          [
            [
              345700,
              5675800
            ],
            [
              345200,
              5675300
            ],
            [
              344700,
              5675800
            ],
            [
              345200,
              5676300
            ],
            [
              345700,
              5675800
            ]
          ]
        ]
      },
      "geometry_name": "_geometry",
      "properties": {
        "_uuid": "cbff2c2e-32e3-41ca-8223-1a013caa137c",
        "_dic_id": "fwrsir",
        "nummer": "S041",
        "beschallungsradius": "500",
        "adresse": "Corneliusstraße 86",
        "plz": "40215",
        "stadtteil": "Friedrichstadt",
        "stadt": "Düsseldorf",
        "_last_update": "2026-04-15"
      }
    },
    {
      "type": "Feature",
      "id": "fwr_sirenen.7def5c3a-f25f-4522-b2bd-4797dc38567d",
      "geometry": {
        "type": "Polygon",
        "coordinates": [
          [
            [
              353900,
              5674700
            ],
            [
              353700,
              5674100
            ],
            [
              353100,
              5673900
            ],
            [
              352600,
              5674100
            ],
            [
              352300,
              5674700
            ],
            [
              352600,
              5675200
            ],
            [
              353100,
              5675500
            ],
            [
              353700,
              5675200
            ],
            [
              353900,
              5674700
            ]
          ]
        ]
      },
      "geometry_name": "_geometry",
      "properties": {
        "_uuid": "7def5c3a-f25f-4522-b2bd-4797dc38567d",
        "_dic_id": "fwrsir",
        "nummer": "S053",
        "beschallungsradius": "800",
        "adresse": "Am Pfaffenbusch / Gerresheimer Landstraße",
        "plz": "40627",
        "stadtteil": "Unterbach",
        "stadt": "Düsseldorf",
        "_last_update": "2026-04-15"
      }
    },
    {
      "type": "Feature",
      "id": "fwr_sirenen.5ff1a437-ca5a-46cb-adb8-a47f4d78e1b5",
      "geometry": {
        "type": "Polygon",
        "coordinates": [
          [
            [
              347200,
              5683800
            ],
            [
              346900,
              5683300
            ],
            [
              346400,
              5683000
            ],
            [
              345800,
              5683300
            ],
            [
              345600,
              5683800
            ],
            [
              345800,
              5684400
            ],
            [
              346400,
              5684600
            ],
            [
              346900,
              5684400
            ],
            [
              347200,
              5683800
            ]
          ]
        ]
      },
      "geometry_name": "_geometry",
      "properties": {
        "_uuid": "5ff1a437-ca5a-46cb-adb8-a47f4d78e1b5",
        "_dic_id": "fwrsir",
        "nummer": "S060",
        "beschallungsradius": "800",
        "adresse": "Krahnenburgstraße 15",
        "plz": "40472",
        "stadtteil": "Lichtenbroich",
        "stadt": "Düsseldorf",
        "_last_update": "2026-04-15"
      }
    },
    {
      "type": "Feature",
      "id": "fwr_sirenen.52713c49-6298-4963-8fcd-82d38113b551",
      "geometry": {
        "type": "Polygon",
        "coordinates": [
          [
            [
              343000,
              5684800
            ],
            [
              342700,
              5684100
            ],
            [
              342000,
              5683800
            ],
            [
              341300,
              5684100
            ],
            [
              341000,
              5684800
            ],
            [
              341300,
              5685500
            ],
            [
              342000,
              5685800
            ],
            [
              342700,
              5685500
            ],
            [
              343000,
              5684800
            ]
          ]
        ]
      },
      "geometry_name": "_geometry",
      "properties": {
        "_uuid": "52713c49-6298-4963-8fcd-82d38113b551",
        "_dic_id": "fwrsir",
        "nummer": "S061",
        "beschallungsradius": "1000",
        "adresse": "Niederrheinstraße 336",
        "plz": "40489",
        "stadtteil": "Kaiserswerth",
        "stadt": "Düsseldorf",
        "_last_update": "2026-04-15"
      }
    },
    {
      "type": "Feature",
      "id": "fwr_sirenen.bf20e66e-4b3a-48b3-b83f-281ec2032c9d",
      "geometry": {
        "type": "Polygon",
        "coordinates": [
          [
            [
              344600,
              5686900
            ],
            [
              344300,
              5686200
            ],
            [
              343600,
              5685900
            ],
            [
              342900,
              5686200
            ],
            [
              342600,
              5686900
            ],
            [
              342900,
              5687600
            ],
            [
              343600,
              5687900
            ],
            [
              344300,
              5687600
            ],
            [
              344600,
              5686900
            ]
          ]
        ]
      },
      "geometry_name": "_geometry",
      "properties": {
        "_uuid": "bf20e66e-4b3a-48b3-b83f-281ec2032c9d",
        "_dic_id": "fwrsir",
        "nummer": "S062",
        "beschallungsradius": "1000",
        "adresse": "Einbrunger Straße 82",
        "plz": "40489",
        "stadtteil": "Wittlaer",
        "stadt": "Düsseldorf",
        "_last_update": "2026-04-15"
      }
    },
    {
      "type": "Feature",
      "id": "fwr_sirenen.dc4d4626-bc9a-4cff-a16e-929ac0f9ea30",
      "geometry": {
        "type": "Polygon",
        "coordinates": [
          [
            [
              348200,
              5682500
            ],
            [
              347900,
              5682000
            ],
            [
              347400,
              5681700
            ],
            [
              346800,
              5682000
            ],
            [
              346600,
              5682500
            ],
            [
              346800,
              5683100
            ],
            [
              347400,
              5683300
            ],
            [
              347900,
              5683100
            ],
            [
              348200,
              5682500
            ]
          ]
        ]
      },
      "geometry_name": "_geometry",
      "properties": {
        "_uuid": "dc4d4626-bc9a-4cff-a16e-929ac0f9ea30",
        "_dic_id": "fwrsir",
        "nummer": "S064",
        "beschallungsradius": "800",
        "adresse": "Theodorstraße 180",
        "plz": "40472",
        "stadtteil": "Rath",
        "stadt": "Düsseldorf",
        "_last_update": "2026-04-15"
      }
    },
    {
      "type": "Feature",
      "id": "fwr_sirenen.92cd6c11-e6a2-459b-b9eb-911e27877294",
      "geometry": {
        "type": "Polygon",
        "coordinates": [
          [
            [
              347600,
              5678100
            ],
            [
              347400,
              5677600
            ],
            [
              346900,
              5677400
            ],
            [
              346400,
              5677600
            ],
            [
              346200,
              5678100
            ],
            [
              346400,
              5678600
            ],
            [
              346900,
              5678800
            ],
            [
              347400,
              5678600
            ],
            [
              347600,
              5678100
            ]
          ]
        ]
      },
      "geometry_name": "_geometry",
      "properties": {
        "_uuid": "92cd6c11-e6a2-459b-b9eb-911e27877294",
        "_dic_id": "fwrsir",
        "nummer": "S066",
        "beschallungsradius": "700",
        "adresse": "Lindemannstraße 57",
        "plz": "40237",
        "stadtteil": "Düsseltal",
        "stadt": "Düsseldorf",
        "_last_update": "2026-04-15"
      }
    },
    {
      "type": "Feature",
      "id": "fwr_sirenen.dbd7fbae-7363-4d13-9894-f4038017fdae",
      "geometry": {
        "type": "Polygon",
        "coordinates": [
          [
            [
              346300,
              5683100
            ],
            [
              346100,
              5682600
            ],
            [
              345600,
              5682400
            ],
            [
              345100,
              5682600
            ],
            [
              344900,
              5683100
            ],
            [
              345100,
              5683600
            ],
            [
              345600,
              5683800
            ],
            [
              346100,
              5683600
            ],
            [
              346300,
              5683100
            ]
          ]
        ]
      },
      "geometry_name": "_geometry",
      "properties": {
        "_uuid": "dbd7fbae-7363-4d13-9894-f4038017fdae",
        "_dic_id": "fwrsir",
        "nummer": "S068",
        "beschallungsradius": "700",
        "adresse": "Parsevalstraße 9b (7-9c)",
        "plz": "40468",
        "stadtteil": "Unterrath",
        "stadt": "Düsseldorf",
        "_last_update": "2026-04-15"
      }
    },
    {
      "type": "Feature",
      "id": "fwr_sirenen.4edea600-4e33-4bb4-bdc9-7b22f453a80e",
      "geometry": {
        "type": "Polygon",
        "coordinates": [
          [
            [
              345000,
              5682700
            ],
            [
              344800,
              5682100
            ],
            [
              344200,
              5681900
            ],
            [
              343600,
              5682100
            ],
            [
              343400,
              5682700
            ],
            [
              343600,
              5683300
            ],
            [
              344200,
              5683500
            ],
            [
              344800,
              5683300
            ],
            [
              345000,
              5682700
            ]
          ]
        ]
      },
      "geometry_name": "_geometry",
      "properties": {
        "_uuid": "4edea600-4e33-4bb4-bdc9-7b22f453a80e",
        "_dic_id": "fwrsir",
        "nummer": "S069",
        "beschallungsradius": "800",
        "adresse": "Flughafenstraße 105",
        "plz": "40474",
        "stadtteil": "Unterrath",
        "stadt": "Düsseldorf",
        "_last_update": "2026-04-15"
      }
    },
    {
      "type": "Feature",
      "id": "fwr_sirenen.6b15e7c6-91e1-49b6-8a90-62e8272efb23",
      "geometry": {
        "type": "Polygon",
        "coordinates": [
          [
            [
              346800,
              5689000
            ],
            [
              346500,
              5688300
            ],
            [
              345800,
              5688000
            ],
            [
              345100,
              5688300
            ],
            [
              344800,
              5689000
            ],
            [
              345100,
              5689700
            ],
            [
              345800,
              5690000
            ],
            [
              346500,
              5689700
            ],
            [
              346800,
              5689000
            ]
          ]
        ]
      },
      "geometry_name": "_geometry",
      "properties": {
        "_uuid": "6b15e7c6-91e1-49b6-8a90-62e8272efb23",
        "_dic_id": "fwrsir",
        "nummer": "S070",
        "beschallungsradius": "1000",
        "adresse": "Bahnhofstraße 1",
        "plz": "40489",
        "stadtteil": "Angermund",
        "stadt": "Düsseldorf",
        "_last_update": "2026-04-15"
      }
    },
    {
      "type": "Feature",
      "id": "fwr_sirenen.e1da68bd-1d55-4f45-b2a6-221540f08a5f",
      "geometry": {
        "type": "Polygon",
        "coordinates": [
          [
            [
              347100,
              5688900
            ],
            [
              346900,
              5688400
            ],
            [
              346400,
              5688200
            ],
            [
              345900,
              5688400
            ],
            [
              345700,
              5688900
            ],
            [
              345900,
              5689400
            ],
            [
              346400,
              5689600
            ],
            [
              346900,
              5689400
            ],
            [
              347100,
              5688900
            ]
          ]
        ]
      },
      "geometry_name": "_geometry",
      "properties": {
        "_uuid": "e1da68bd-1d55-4f45-b2a6-221540f08a5f",
        "_dic_id": "fwrsir",
        "nummer": "S071",
        "beschallungsradius": "700",
        "adresse": "Freiheitshagen 33",
        "plz": "40489",
        "stadtteil": "Angermund",
        "stadt": "Düsseldorf",
        "_last_update": "2026-04-15"
      }
    },
    {
      "type": "Feature",
      "id": "fwr_sirenen.ef8a76a0-2a3b-4168-b9fb-e1aa6a587e5a",
      "geometry": {
        "type": "Polygon",
        "coordinates": [
          [
            [
              345800,
              5688100
            ],
            [
              345400,
              5687700
            ],
            [
              345000,
              5688100
            ],
            [
              345400,
              5688500
            ],
            [
              345800,
              5688100
            ]
          ]
        ]
      },
      "geometry_name": "_geometry",
      "properties": {
        "_uuid": "ef8a76a0-2a3b-4168-b9fb-e1aa6a587e5a",
        "_dic_id": "fwrsir",
        "nummer": "S072",
        "beschallungsradius": "400",
        "adresse": "Wacholderstraße 30a",
        "plz": "40489",
        "stadtteil": "Angermund",
        "stadt": "Düsseldorf",
        "_last_update": "2026-04-15"
      }
    },
    {
      "type": "Feature",
      "id": "fwr_sirenen.31c90bcf-20f3-44c2-99b8-9496dd6766e9",
      "geometry": {
        "type": "Polygon",
        "coordinates": [
          [
            [
              342900,
              5689800
            ],
            [
              342600,
              5689100
            ],
            [
              341900,
              5688800
            ],
            [
              341200,
              5689100
            ],
            [
              340900,
              5689800
            ],
            [
              341200,
              5690500
            ],
            [
              341900,
              5690800
            ],
            [
              342600,
              5690500
            ],
            [
              342900,
              5689800
            ]
          ]
        ]
      },
      "geometry_name": "_geometry",
      "properties": {
        "_uuid": "31c90bcf-20f3-44c2-99b8-9496dd6766e9",
        "_dic_id": "fwrsir",
        "nummer": "S073",
        "beschallungsradius": "1000",
        "adresse": "Wasserwerksweg 60",
        "plz": "40489",
        "stadtteil": "Wittlaer",
        "stadt": "Düsseldorf",
        "_last_update": "2026-04-15"
      }
    },
    {
      "type": "Feature",
      "id": "fwr_sirenen.e44e102d-abae-43d6-a1e5-47058dba5da5",
      "geometry": {
        "type": "Polygon",
        "coordinates": [
          [
            [
              343600,
              5687700
            ],
            [
              343300,
              5687100
            ],
            [
              342700,
              5686800
            ],
            [
              342100,
              5687100
            ],
            [
              341800,
              5687700
            ],
            [
              342100,
              5688300
            ],
            [
              342700,
              5688600
            ],
            [
              343300,
              5688300
            ],
            [
              343600,
              5687700
            ]
          ]
        ]
      },
      "geometry_name": "_geometry",
      "properties": {
        "_uuid": "e44e102d-abae-43d6-a1e5-47058dba5da5",
        "_dic_id": "fwrsir",
        "nummer": "S074",
        "beschallungsradius": "900",
        "adresse": "Rheinweg 1",
        "plz": "40489",
        "stadtteil": "Wittlaer",
        "stadt": "Düsseldorf",
        "_last_update": "2026-04-15"
      }
    },
    {
      "type": "Feature",
      "id": "fwr_sirenen.b4c36cd4-31a6-4837-ba30-242f6849589f",
      "geometry": {
        "type": "Polygon",
        "coordinates": [
          [
            [
              343300,
              5685800
            ],
            [
              343000,
              5685100
            ],
            [
              342300,
              5684800
            ],
            [
              341600,
              5685100
            ],
            [
              341300,
              5685800
            ],
            [
              341600,
              5686500
            ],
            [
              342300,
              5686800
            ],
            [
              343000,
              5686500
            ],
            [
              343300,
              5685800
            ]
          ]
        ]
      },
      "geometry_name": "_geometry",
      "properties": {
        "_uuid": "b4c36cd4-31a6-4837-ba30-242f6849589f",
        "_dic_id": "fwrsir",
        "nummer": "S075",
        "beschallungsradius": "1000",
        "adresse": "Kaiserwerther Markt 40",
        "plz": "40489",
        "stadtteil": "Kaiserswerth",
        "stadt": "Düsseldorf",
        "_last_update": "2026-04-15"
      }
    },
    {
      "type": "Feature",
      "id": "fwr_sirenen.9d82a697-3bc3-4da9-858e-c70ee95091d5",
      "geometry": {
        "type": "Polygon",
        "coordinates": [
          [
            [
              344500,
              5685800
            ],
            [
              344300,
              5685200
            ],
            [
              343700,
              5685000
            ],
            [
              343100,
              5685200
            ],
            [
              342900,
              5685800
            ],
            [
              343100,
              5686300
            ],
            [
              343700,
              5686600
            ],
            [
              344300,
              5686300
            ],
            [
              344500,
              5685800
            ]
          ]
        ]
      },
      "geometry_name": "_geometry",
      "properties": {
        "_uuid": "9d82a697-3bc3-4da9-858e-c70ee95091d5",
        "_dic_id": "fwrsir",
        "nummer": "S076",
        "beschallungsradius": "800",
        "adresse": "Edmund-Bertrams-Straße 14",
        "plz": "40489",
        "stadtteil": "Kalkum",
        "stadt": "Düsseldorf",
        "_last_update": "2026-04-15"
      }
    },
    {
      "type": "Feature",
      "id": "fwr_sirenen.2d81b480-b4dc-4aea-a6ab-363d2e048955",
      "geometry": {
        "type": "Polygon",
        "coordinates": [
          [
            [
              354200,
              5674300
            ],
            [
              354100,
              5673900
            ],
            [
              353600,
              5673700
            ],
            [
              353200,
              5673900
            ],
            [
              353000,
              5674300
            ],
            [
              353200,
              5674700
            ],
            [
              353600,
              5674900
            ],
            [
              354100,
              5674700
            ],
            [
              354200,
              5674300
            ]
          ]
        ]
      },
      "geometry_name": "_geometry",
      "properties": {
        "_uuid": "2d81b480-b4dc-4aea-a6ab-363d2e048955",
        "_dic_id": "fwrsir",
        "nummer": "S079",
        "beschallungsradius": "600",
        "adresse": "Gerresheimer Landstraße 42",
        "plz": "40627",
        "stadtteil": "Unterbach",
        "stadt": "Düsseldorf",
        "_last_update": "2026-04-15"
      }
    },
    {
      "type": "Feature",
      "id": "fwr_sirenen.e57f1826-edb1-4e21-bde2-f97d25b04287",
      "geometry": {
        "type": "Polygon",
        "coordinates": [
          [
            [
              347700,
              5671000
            ],
            [
              347400,
              5670300
            ],
            [
              346700,
              5670000
            ],
            [
              346000,
              5670300
            ],
            [
              345700,
              5671000
            ],
            [
              346000,
              5671700
            ],
            [
              346700,
              5672000
            ],
            [
              347400,
              5671700
            ],
            [
              347700,
              5671000
            ]
          ]
        ]
      },
      "geometry_name": "_geometry",
      "properties": {
        "_uuid": "e57f1826-edb1-4e21-bde2-f97d25b04287",
        "_dic_id": "fwrsir",
        "nummer": "S080",
        "beschallungsradius": "1000",
        "adresse": "Steinkaul 27",
        "plz": "40589",
        "stadtteil": "Himmelgeist",
        "stadt": "Düsseldorf",
        "_last_update": "2026-04-15"
      }
    },
    {
      "type": "Feature",
      "id": "fwr_sirenen.9edcca26-98ce-4d7e-a6fd-a607432aa56c",
      "geometry": {
        "type": "Polygon",
        "coordinates": [
          [
            [
              348900,
              5675600
            ],
            [
              348600,
              5675000
            ],
            [
              348000,
              5674700
            ],
            [
              347400,
              5675000
            ],
            [
              347100,
              5675600
            ],
            [
              347400,
              5676300
            ],
            [
              348000,
              5676500
            ],
            [
              348600,
              5676300
            ],
            [
              348900,
              5675600
            ]
          ]
        ]
      },
      "geometry_name": "_geometry",
      "properties": {
        "_uuid": "9edcca26-98ce-4d7e-a6fd-a607432aa56c",
        "_dic_id": "fwrsir",
        "nummer": "S083",
        "beschallungsradius": "900",
        "adresse": "Erkrather Straße 381",
        "plz": "40231",
        "stadtteil": "Lierenfeld",
        "stadt": "Düsseldorf",
        "_last_update": "2026-04-15"
      }
    },
    {
      "type": "Feature",
      "id": "fwr_sirenen.19ea8483-c7ab-4b09-8863-394d2aaee766",
      "geometry": {
        "type": "Polygon",
        "coordinates": [
          [
            [
              346100,
              5682300
            ],
            [
              345800,
              5681800
            ],
            [
              345300,
              5681500
            ],
            [
              344700,
              5681800
            ],
            [
              344500,
              5682300
            ],
            [
              344700,
              5682900
            ],
            [
              345300,
              5683100
            ],
            [
              345800,
              5682900
            ],
            [
              346100,
              5682300
            ]
          ]
        ]
      },
      "geometry_name": "_geometry",
      "properties": {
        "_uuid": "19ea8483-c7ab-4b09-8863-394d2aaee766",
        "_dic_id": "fwrsir",
        "nummer": "S085",
        "beschallungsradius": "800",
        "adresse": "Cloppenburger Weg 27",
        "plz": "40468",
        "stadtteil": "Unterrath",
        "stadt": "Düsseldorf",
        "_last_update": "2026-04-15"
      }
    },
    {
      "type": "Feature",
      "id": "fwr_sirenen.9fdcaf67-3196-4c7e-a453-307f353fb07a",
      "geometry": {
        "type": "Polygon",
        "coordinates": [
          [
            [
              347000,
              5676200
            ],
            [
              346800,
              5675600
            ],
            [
              346100,
              5675300
            ],
            [
              345500,
              5675600
            ],
            [
              345200,
              5676200
            ],
            [
              345500,
              5676800
            ],
            [
              346100,
              5677100
            ],
            [
              346800,
              5676800
            ],
            [
              347000,
              5676200
            ]
          ]
        ]
      },
      "geometry_name": "_geometry",
      "properties": {
        "_uuid": "9fdcaf67-3196-4c7e-a453-307f353fb07a",
        "_dic_id": "fwrsir",
        "nummer": "S087",
        "beschallungsradius": "900",
        "adresse": "Ellerstraße 84",
        "plz": "40227",
        "stadtteil": "Oberbilk",
        "stadt": "Düsseldorf",
        "_last_update": "2026-04-15"
      }
    },
    {
      "type": "Feature",
      "id": "fwr_sirenen.6a790802-d0a3-4888-a9ef-090047cf35c5",
      "geometry": {
        "type": "Polygon",
        "coordinates": [
          [
            [
              346100,
              5676300
            ],
            [
              345800,
              5675700
            ],
            [
              345300,
              5675500
            ],
            [
              344700,
              5675700
            ],
            [
              344500,
              5676300
            ],
            [
              344700,
              5676900
            ],
            [
              345300,
              5677100
            ],
            [
              345800,
              5676900
            ],
            [
              346100,
              5676300
            ]
          ]
        ]
      },
      "geometry_name": "_geometry",
      "properties": {
        "_uuid": "6a790802-d0a3-4888-a9ef-090047cf35c5",
        "_dic_id": "fwrsir",
        "nummer": "S089",
        "beschallungsradius": "800",
        "adresse": "Luisenstraße 73",
        "plz": "40215",
        "stadtteil": "Friedrichstadt",
        "stadt": "Düsseldorf",
        "_last_update": "2026-04-15"
      }
    },
    {
      "type": "Feature",
      "id": "fwr_sirenen.a8770ca5-45de-4f4c-90ee-dacb0fa89b86",
      "geometry": {
        "type": "Polygon",
        "coordinates": [
          [
            [
              352800,
              5675300
            ],
            [
              352600,
              5674700
            ],
            [
              352000,
              5674500
            ],
            [
              351400,
              5674700
            ],
            [
              351200,
              5675300
            ],
            [
              351400,
              5675800
            ],
            [
              352000,
              5676100
            ],
            [
              352600,
              5675800
            ],
            [
              352800,
              5675300
            ]
          ]
        ]
      },
      "geometry_name": "_geometry",
      "properties": {
        "_uuid": "a8770ca5-45de-4f4c-90ee-dacb0fa89b86",
        "_dic_id": "fwrsir",
        "nummer": "S090",
        "beschallungsradius": "800",
        "adresse": "Rathelbeckstraße 284",
        "plz": "40627",
        "stadtteil": "Unterbach",
        "stadt": "Düsseldorf",
        "_last_update": "2026-04-15"
      }
    },
    {
      "type": "Feature",
      "id": "fwr_sirenen.498692af-5001-4a79-9732-0175f863e640",
      "geometry": {
        "type": "Polygon",
        "coordinates": [
          [
            [
              343700,
              5686300
            ],
            [
              343400,
              5685700
            ],
            [
              342900,
              5685500
            ],
            [
              342300,
              5685700
            ],
            [
              342100,
              5686300
            ],
            [
              342300,
              5686800
            ],
            [
              342900,
              5687100
            ],
            [
              343400,
              5686800
            ],
            [
              343700,
              5686300
            ]
          ]
        ]
      },
      "geometry_name": "_geometry",
      "properties": {
        "_uuid": "498692af-5001-4a79-9732-0175f863e640",
        "_dic_id": "fwrsir",
        "nummer": "S091",
        "beschallungsradius": "800",
        "adresse": "Kalkumer Schloßallee 28",
        "plz": "40489",
        "stadtteil": "Kaiserswerth",
        "stadt": "Düsseldorf",
        "_last_update": "2026-04-15"
      }
    },
    {
      "type": "Feature",
      "id": "fwr_sirenen.25d80be1-5be7-4fc0-8bda-0ef22f527f18",
      "geometry": {
        "type": "Polygon",
        "coordinates": [
          [
            [
              343000,
              5675100
            ],
            [
              342800,
              5674600
            ],
            [
              342200,
              5674300
            ],
            [
              341700,
              5674600
            ],
            [
              341400,
              5675100
            ],
            [
              341700,
              5675700
            ],
            [
              342200,
              5675900
            ],
            [
              342800,
              5675700
            ],
            [
              343000,
              5675100
            ]
          ]
        ]
      },
      "geometry_name": "_geometry",
      "properties": {
        "_uuid": "25d80be1-5be7-4fc0-8bda-0ef22f527f18",
        "_dic_id": "fwrsir",
        "nummer": "S095",
        "beschallungsradius": "800",
        "adresse": "Heinsenstraße 21",
        "plz": "40221",
        "stadtteil": "Hamm",
        "stadt": "Düsseldorf",
        "_last_update": "2026-04-15"
      }
    },
    {
      "type": "Feature",
      "id": "fwr_sirenen.5e38f3de-7528-4f5b-9838-8c22fe0bff49",
      "geometry": {
        "type": "Polygon",
        "coordinates": [
          [
            [
              345000,
              5675600
            ],
            [
              344800,
              5675000
            ],
            [
              344200,
              5674800
            ],
            [
              343600,
              5675000
            ],
            [
              343400,
              5675600
            ],
            [
              343600,
              5676200
            ],
            [
              344200,
              5676400
            ],
            [
              344800,
              5676200
            ],
            [
              345000,
              5675600
            ]
          ]
        ]
      },
      "geometry_name": "_geometry",
      "properties": {
        "_uuid": "5e38f3de-7528-4f5b-9838-8c22fe0bff49",
        "_dic_id": "fwrsir",
        "nummer": "S097",
        "beschallungsradius": "800",
        "adresse": "Kronprinzenstraße 105a",
        "plz": "40217",
        "stadtteil": "Unterbilk",
        "stadt": "Düsseldorf",
        "_last_update": "2026-04-15"
      }
    },
    {
      "type": "Feature",
      "id": "fwr_sirenen.de086dba-3f8d-403b-9fbf-a341eebba931",
      "geometry": {
        "type": "Polygon",
        "coordinates": [
          [
            [
              344400,
              5673000
            ],
            [
              344100,
              5672400
            ],
            [
              343600,
              5672200
            ],
            [
              343000,
              5672400
            ],
            [
              342800,
              5673000
            ],
            [
              343000,
              5673600
            ],
            [
              343600,
              5673800
            ],
            [
              344100,
              5673600
            ],
            [
              344400,
              5673000
            ]
          ]
        ]
      },
      "geometry_name": "_geometry",
      "properties": {
        "_uuid": "de086dba-3f8d-403b-9fbf-a341eebba931",
        "_dic_id": "fwrsir",
        "nummer": "S098",
        "beschallungsradius": "800",
        "adresse": "Volmerswerther Straße 429",
        "plz": "40221",
        "stadtteil": "Volmerswerth",
        "stadt": "Düsseldorf",
        "_last_update": "2026-04-15"
      }
    },
    {
      "type": "Feature",
      "id": "fwr_sirenen.fbec8b45-fd02-4200-b89b-8efdec6db66a",
      "geometry": {
        "type": "Polygon",
        "coordinates": [
          [
            [
              344000,
              5681900
            ],
            [
              343700,
              5681300
            ],
            [
              343200,
              5681100
            ],
            [
              342600,
              5681300
            ],
            [
              342400,
              5681900
            ],
            [
              342600,
              5682400
            ],
            [
              343200,
              5682700
            ],
            [
              343700,
              5682400
            ],
            [
              344000,
              5681900
            ]
          ]
        ]
      },
      "geometry_name": "_geometry",
      "properties": {
        "_uuid": "fbec8b45-fd02-4200-b89b-8efdec6db66a",
        "_dic_id": "fwrsir",
        "nummer": "S099",
        "beschallungsradius": "800",
        "adresse": "Niederrheinstraße 1",
        "plz": "40474",
        "stadtteil": "Stockum",
        "stadt": "Düsseldorf",
        "_last_update": "2026-04-15"
      }
    },
    {
      "type": "Feature",
      "id": "fwr_sirenen.d145fb15-e4ae-4a9f-a53d-6a070c94ebce",
      "geometry": {
        "type": "Polygon",
        "coordinates": [
          [
            [
              344300,
              5677800
            ],
            [
              344100,
              5677100
            ],
            [
              343400,
              5676900
            ],
            [
              342800,
              5677100
            ],
            [
              342500,
              5677800
            ],
            [
              342800,
              5678400
            ],
            [
              343400,
              5678700
            ],
            [
              344100,
              5678400
            ],
            [
              344300,
              5677800
            ]
          ]
        ]
      },
      "geometry_name": "_geometry",
      "properties": {
        "_uuid": "d145fb15-e4ae-4a9f-a53d-6a070c94ebce",
        "_dic_id": "fwrsir",
        "nummer": "S100",
        "beschallungsradius": "900",
        "adresse": "Salierstraße 37",
        "plz": "40545",
        "stadtteil": "Oberkassel",
        "stadt": "Düsseldorf",
        "_last_update": "2026-04-15"
      }
    },
    {
      "type": "Feature",
      "id": "fwr_sirenen.dfb633e1-b75c-44ed-b53f-81f4fb4d4f54",
      "geometry": {
        "type": "Polygon",
        "coordinates": [
          [
            [
              352800,
              5668200
            ],
            [
              352600,
              5667700
            ],
            [
              352000,
              5667400
            ],
            [
              351500,
              5667700
            ],
            [
              351200,
              5668200
            ],
            [
              351500,
              5668800
            ],
            [
              352000,
              5669000
            ],
            [
              352600,
              5668800
            ],
            [
              352800,
              5668200
            ]
          ]
        ]
      },
      "geometry_name": "_geometry",
      "properties": {
        "_uuid": "dfb633e1-b75c-44ed-b53f-81f4fb4d4f54",
        "_dic_id": "fwrsir",
        "nummer": "S101",
        "beschallungsradius": "800",
        "adresse": "An der Kämpe 35",
        "plz": "40595",
        "stadtteil": "Garath",
        "stadt": "Düsseldorf",
        "_last_update": "2026-04-15"
      }
    },
    {
      "type": "Feature",
      "id": "fwr_sirenen.45e3449b-42b8-48b1-b33d-afa7b28e6231",
      "geometry": {
        "type": "Polygon",
        "coordinates": [
          [
            [
              354700,
              5667000
            ],
            [
              354400,
              5666300
            ],
            [
              353800,
              5666100
            ],
            [
              353200,
              5666300
            ],
            [
              352900,
              5667000
            ],
            [
              353200,
              5667600
            ],
            [
              353800,
              5667900
            ],
            [
              354400,
              5667600
            ],
            [
              354700,
              5667000
            ]
          ]
        ]
      },
      "geometry_name": "_geometry",
      "properties": {
        "_uuid": "45e3449b-42b8-48b1-b33d-afa7b28e6231",
        "_dic_id": "fwrsir",
        "nummer": "S102",
        "beschallungsradius": "900",
        "adresse": "Dresdener Straße 31",
        "plz": "40595",
        "stadtteil": "Hellerhof",
        "stadt": "Düsseldorf",
        "_last_update": "2026-04-15"
      }
    }
  ],
  "crs": {
    "type": "name",
    "properties": {
      "name": "urn:ogc:def:crs:EPSG::25832"
    }
  },
  "numberReturned": 57
}